[{"OBJECT_NAME":"ITAMSAT (IO-26)","OBJECT_ID":"1993-061D","EPOCH":"2026-03-09T18:51:40.558176","MEAN_MOTION":14.31337175,"ECCENTRICITY":0.00091856,"INCLINATION":98.6929,"RA_OF_ASC_NODE":136.1036,"ARG_OF_PERICENTER":22.8845,"MEAN_ANOMALY":337.2746,"EPHEMERIS_TYPE":0,"CLASSIFICATION_TYPE":"U","NORAD_CAT_ID":22826,"ELEMENT_SET_NO":999,"REV_AT_EPOCH":69309,"BSTAR":7.3937292e-5,"MEAN_MOTION_DOT":1.51e-6,"MEAN_MOTION_DDOT":0},{"OBJECT_NAME":"CZ-6A DEB","OBJECT_ID":"2022-151YJ","EPOCH":"2026-03-09T21:32:43.716480","MEAN_MOTION":14.25382168,"ECCENTRICITY":0.00433067,"INCLINATION":98.803,"RA_OF_ASC_NODE":80.3253,"ARG_OF_PERICENTER":238.0901,"MEAN_ANOMALY":121.6063,"EPHEMERIS_TYPE":0,"CLASSIFICATION_TYPE":"U","NORAD_CAT_ID":55536,"ELEMENT_SET_NO":999,"REV_AT_EPOCH":16629,"BSTAR":0.0023997519,"MEAN_MOTION_DOT":5.673e-5,"MEAN_MOTION_DDOT":0}]
